[{"hotel Name ":"Anne de Bretagne","hotel Price":"72.50","hotel adress":{"street":"Le Moulin de Malfourat","postalCode":"24240","city":"Monbazillac"},"Link for Reservation":["https://www.relaischateaux.com/us/france/annedebretagne-loire-atlantique-la-plaine-sur-mer"]},{"hotel Name ":"Assiette Champenoise","hotel Price":"185.50","hotel adress":{"street":"10 rue Hôtel-Dieu","postalCode":"21200","city":"Beaune"},"Link for Reservation":["https://www.relaischateaux.com/us/france/assiette-champenoise-champagne-ardenne-tinqueux"]},{"hotel Name ":"Auberge des Templiers","hotel Price":"112.20","hotel adress":{"street":"2 avenue de la Libération","postalCode":"71120","city":"Charolles"},"Link for Reservation":["https://www.relaischateaux.com/us/france/templiers-loiret-boismorand"]},{"hotel Name ":"Château Cordeillan-Bages","hotel Price":"170.00","hotel adress":{"street":"2 Rue de Collonges au Mont d'Or","postalCode":"68970","city":"ILLHAEUSERN"},"Link for Reservation":["https://www.relaischateaux.com/us/france/cordeillan-gironde-pauillac"]},{"hotel Name ":"Château de la Treyne","hotel Price":"250.00","hotel adress":{"street":"12 Rue de l'Amiral Roussin","postalCode":"75015","city":"Paris 15"},"Link for Reservation":["https://www.relaischateaux.com/us/france/treyne-lot-lacave"]},{"hotel Name ":"Domaine de Rochevilaine","hotel Price":"192.00","hotel adress":{"street":"64 Rue Gambetta","postalCode":"14800","city":"DEAUVILLE"},"Link for Reservation":["https://www.relaischateaux.com/us/france/rochevilaine-morbihan-billiers"]},{"hotel Name ":"Flocons de Sel","hotel Price":"430.00","hotel adress":{"street":"Le Cloitre","postalCode":"04300","city":"Mane"},"Link for Reservation":["https://www.relaischateaux.com/us/france/flocons-haute-savoie-megeve"]},{"hotel Name ":"Hostellerie de Levernois","hotel Price":"150.00","hotel adress":{"street":"31, rue Maufoux","postalCode":"21200","city":"Beaune"},"Link for Reservation":["https://www.relaischateaux.com/us/france/levernois-cote-d-or-levernois-beaune"]},{"hotel Name ":"Hostellerie de Plaisance","hotel Price":"280.00","hotel adress":{"street":"189 Quai Ulysse Besnard","postalCode":"41000","city":"Blois"},"Link for Reservation":["https://www.relaischateaux.com/us/france/plaisance-gironde-saint-emilion"]},{"hotel Name ":"L'Auberge Basque","hotel Price":"101.15","hotel adress":{"street":"25, boulevard Louis Lumière","postalCode":"83150","city":"Bandol"},"Link for Reservation":["https://www.relaischateaux.com/us/france/auberge-basque-saint-pee-sur-nivelle-pyrenees-atlantiques"]},{"hotel Name ":"La Bastide de Capelongue","hotel Price":"113.00","hotel adress":{"street":"51 Rue Jouffroy-d'Abbans","postalCode":"75017","city":"Paris 17"},"Link for Reservation":["https://www.relaischateaux.com/us/france/capelongue-vaucluse-bonnieux-en-provence"]},{"hotel Name ":"La Bonne Étape","hotel Price":"158.00","hotel adress":{"street":"bd Ste-Barbe","postalCode":"29681","city":"Roscoff"},"Link for Reservation":["https://www.relaischateaux.com/us/france/bonneetape-alpes-de-haute-provence-chateau-arnoux"]},{"hotel Name ":"La Grande Maison de Bernard Magrez","hotel Price":"293.00","hotel adress":{"street":"Les Etangs","postalCode":"16310","city":"MASSIGNAC"},"Link for Reservation":["https://www.relaischateaux.com/us/france/grande-maison-bernard-magrez-gironde-bordeaux"]},{"hotel Name ":"La Grenouillère","hotel Price":"180.00","hotel adress":{"street":"13 r. J. -Mermoz","postalCode":"74940","city":"Annecy"},"Link for Reservation":["https://www.relaischateaux.com/us/france/lagrenouillere-pas-de-calais-la-madelaine-sous-montreuil"]},{"hotel Name ":"Le Vieux Logis","hotel Price":"170.00","hotel adress":{"street":"42 Avenue Gabriel","postalCode":"75008","city":"Paris"},"Link for Reservation":["https://www.relaischateaux.com/us/france/vieuxlogis-dordogne-tremolat"]},{"hotel Name ":"Les Hautes Roches","hotel Price":"165.00","hotel adress":{"street":"9 Place des Vosges","postalCode":"75004","city":"Paris"},"Link for Reservation":["https://www.relaischateaux.com/us/france/hautesroches-indre-et-loire-rochecorbon"]},{"hotel Name ":"Maison Decoret","hotel Price":"117.81","hotel adress":{"street":"D6","postalCode":"14400","city":"Sully"},"Link for Reservation":["https://www.relaischateaux.com/us/france/decoret-allier-vichy"]},{"hotel Name ":"Maison Lameloise","hotel Price":"180.00","hotel adress":{"street":"10 Place Général de Gaulle","postalCode":"83170","city":"La Celle"},"Link for Reservation":["https://www.relaischateaux.com/us/france/lameloise-saone-et-loire-chagny"]},{"hotel Name ":"Michel Trama","hotel Price":"220.00","hotel adress":{"street":"chemin de Martorey","postalCode":"71100","city":"Saint-Rémy"},"Link for Reservation":["https://www.relaischateaux.com/us/france/aubergade-lot-et-garonne-puymirol"]},{"hotel Name ":"Relais de la Poste","hotel Price":"162.00","hotel adress":{"street":"quartier Helbarron","postalCode":"64310","city":"Saint-Pée-sur-Nivelle"},"Link for Reservation":["https://www.relaischateaux.com/us/france/poste-landes-magescq"]},{"hotel Name ":"Villa René Lalique","hotel Price":-1,"hotel adress":{"street":"247 avenue de Provence","postalCode":"06140","city":"VENCE"},"Link for Reservation":["https://www.relaischateaux.com/us/france/lalique-bas-rhin"]}]